start=new Date('2021-12-04T00:00:00.000Z').valueOf();
sats=[{"NORAD_CAT_ID":"46536","MEAN_ANOMALY":"154.7450","SITE":"AFETR","OBJECT_ID":"2020-070E","CENTER_NAME":"EARTH","ELEMENT_SET_NO":"999","TLE_LINE1":"1 46536U 20070E   21337.65999741  .00062439  00000-0  38451-3 0  9997","REV_AT_EPOCH":"6541","DECAY_DATE":null,"RA_OF_ASC_NODE":"284.4665","EPOCH":"2021-12-03T15:50:23.776224","ARG_OF_PERICENTER":"205.2845","BSTAR":"0.00038451000000","FILE":"3231910","PERIAPSIS":"330.494","LAUNCH_DATE":"2020-10-06","MEAN_MOTION_DOT":"0.00062439","RCS_SIZE":"LARGE","CLASSIFICATION_TYPE":"U","APOAPSIS":"350.426","MEAN_MOTION":"15.76467733","ECCENTRICITY":"0.00148330","TIME_SYSTEM":"UTC","PERIOD":"91.343","MEAN_ELEMENT_THEORY":"SGP4","GP_ID":"191038151","TLE_LINE2":"2 46536  53.0549 284.4665 0014833 205.2845 154.7450 15.76467733 65413","COUNTRY_CODE":"US","EPHEMERIS_TYPE":"0","OBJECT_NAME":"STARLINK-1668","OBJECT_TYPE":"PAYLOAD","INCLINATION":"53.0549","SEMIMAJOR_AXIS":"6718.595","REF_FRAME":"TEME","MEAN_MOTION_DDOT":"0.0000000000000"},{"ELEMENT_SET_NO":"999","CENTER_NAME":"EARTH","OBJECT_ID":"2020-070F","SITE":"AFETR","NORAD_CAT_ID":"46537","MEAN_ANOMALY":"308.4967","ARG_OF_PERICENTER":"51.6200","RA_OF_ASC_NODE":"327.2911","EPOCH":"2021-12-03T11:06:31.027968","DECAY_DATE":null,"REV_AT_EPOCH":"6479","TLE_LINE1":"1 46537U 20070F   21337.46285912  .00000382  00000-0  44545-4 0  9996","CLASSIFICATION_TYPE":"U","APOAPSIS":"548.602","RCS_SIZE":"LARGE","LAUNCH_DATE":"2020-10-06","PERIAPSIS":"545.846","MEAN_MOTION_DOT":"0.00000382","FILE":"3231740","BSTAR":"0.00004454500000","ECCENTRICITY":"0.00019900","MEAN_MOTION":"15.06396635","MEAN_ELEMENT_THEORY":"SGP4","TIME_SYSTEM":"UTC","PERIOD":"95.592","OBJECT_NAME":"STARLINK-1672","EPHEMERIS_TYPE":"0","COUNTRY_CODE":"US","TLE_LINE2":"2 46537  53.0541 327.2911 0001990  51.6200 308.4967 15.06396635 64790","GP_ID":"191010948","SEMIMAJOR_AXIS":"6925.359","OBJECT_TYPE":"PAYLOAD","INCLINATION":"53.0541","MEAN_MOTION_DDOT":"0.0000000000000","REF_FRAME":"TEME"},{"MEAN_MOTION":"15.06397717","ECCENTRICITY":"0.00017220","BSTAR":"0.00006349600000","FILE":"3231740","RCS_SIZE":"LARGE","MEAN_MOTION_DOT":"0.00000664","LAUNCH_DATE":"2020-10-06","PERIAPSIS":"546.028","CLASSIFICATION_TYPE":"U","APOAPSIS":"548.413","TLE_LINE1":"1 46538U 20070G   21337.37439717  .00000664  00000-0  63496-4 0  9990","DECAY_DATE":null,"REV_AT_EPOCH":"6477","ARG_OF_PERICENTER":"64.0713","EPOCH":"2021-12-03T08:59:07.915488","RA_OF_ASC_NODE":"327.6835","SITE":"AFETR","MEAN_ANOMALY":"296.0453","NORAD_CAT_ID":"46538","OBJECT_ID":"2020-070G","CENTER_NAME":"EARTH","ELEMENT_SET_NO":"999","REF_FRAME":"TEME","MEAN_MOTION_DDOT":"0.0000000000000","INCLINATION":"53.0541","OBJECT_TYPE":"PAYLOAD","SEMIMAJOR_AXIS":"6925.356","GP_ID":"191011198","TLE_LINE2":"2 46538  53.0541 327.6835 0001722  64.0713 296.0453 15.06397717 64772","COUNTRY_CODE":"US","OBJECT_NAME":"STARLINK-1678","EPHEMERIS_TYPE":"0","TIME_SYSTEM":"UTC","PERIOD":"95.592","MEAN_ELEMENT_THEORY":"SGP4"},{"ECCENTRICITY":"0.00016120","MEAN_MOTION":"15.16540639","APOAPSIS":"517.419","CLASSIFICATION_TYPE":"U","RCS_SIZE":"LARGE","LAUNCH_DATE":"2020-10-06","PERIAPSIS":"515.196","MEAN_MOTION_DOT":"0.00313716","FILE":"3231740","BSTAR":"0.01522900000000","ARG_OF_PERICENTER":"54.9617","EPOCH":"2021-12-03T10:58:21.289440","RA_OF_ASC_NODE":"326.8556","DECAY_DATE":null,"REV_AT_EPOCH":"6480","TLE_LINE1":"1 46539U 20070H   21337.45719085  .00313716  00000-0  15229-1 0  9992","ELEMENT_SET_NO":"999","CENTER_NAME":"EARTH","OBJECT_ID":"2020-070H","SITE":"AFETR","NORAD_CAT_ID":"46539","MEAN_ANOMALY":"305.1527","MEAN_MOTION_DDOT":"0.0000000000000","REF_FRAME":"TEME","SEMIMAJOR_AXIS":"6894.442","INCLINATION":"53.0533","OBJECT_TYPE":"PAYLOAD","OBJECT_NAME":"STARLINK-1684","EPHEMERIS_TYPE":"0","COUNTRY_CODE":"US","TLE_LINE2":"2 46539  53.0533 326.8556 0001612  54.9617 305.1527 15.16540639 64806","GP_ID":"191011450","MEAN_ELEMENT_THEORY":"SGP4","PERIOD":"94.953","TIME_SYSTEM":"UTC"},{"MEAN_MOTION":"15.06386697","ECCENTRICITY":"0.00021280","BSTAR":"-0.00006202700000","FILE":"3231740","LAUNCH_DATE":"2020-10-06","PERIAPSIS":"545.781","MEAN_MOTION_DOT":"-0.00001205","RCS_SIZE":"LARGE","APOAPSIS":"548.728","CLASSIFICATION_TYPE":"U","TLE_LINE1":"1 46541U 20070K   21337.35413164 -.00001205  00000-0 -62027-4 0  9993","REV_AT_EPOCH":"6505","DECAY_DATE":null,"EPOCH":"2021-12-03T08:29:56.973696","RA_OF_ASC_NODE":"307.7610","ARG_OF_PERICENTER":"55.0732","MEAN_ANOMALY":"305.0457","NORAD_CAT_ID":"46541","SITE":"AFETR","OBJECT_ID":"2020-070K","CENTER_NAME":"EARTH","ELEMENT_SET_NO":"999","REF_FRAME":"TEME","MEAN_MOTION_DDOT":"0.0000000000000","OBJECT_TYPE":"PAYLOAD","INCLINATION":"53.0555","SEMIMAJOR_AXIS":"6925.389","GP_ID":"191012200","TLE_LINE2":"2 46541  53.0555 307.7610 0002128  55.0732 305.0457 15.06386697 65055","COUNTRY_CODE":"US","EPHEMERIS_TYPE":"0","OBJECT_NAME":"STARLINK-1687","TIME_SYSTEM":"UTC","PERIOD":"95.593","MEAN_ELEMENT_THEORY":"SGP4"},{"ECCENTRICITY":"0.00017610","MEAN_MOTION":"15.06394946","APOAPSIS":"548.449","CLASSIFICATION_TYPE":"U","PERIAPSIS":"546.009","LAUNCH_DATE":"2020-10-06","MEAN_MOTION_DOT":"0.00001244","RCS_SIZE":"LARGE","BSTAR":"0.00010242000000","FILE":"3231740","RA_OF_ASC_NODE":"327.7673","EPOCH":"2021-12-03T08:32:36.320352","ARG_OF_PERICENTER":"54.6509","REV_AT_EPOCH":"6477","DECAY_DATE":null,"TLE_LINE1":"1 46542U 20070L   21337.35597593  .00001244  00000-0  10242-3 0  9995","ELEMENT_SET_NO":"999","CENTER_NAME":"EARTH","OBJECT_ID":"2020-070L","NORAD_CAT_ID":"46542","MEAN_ANOMALY":"305.4644","SITE":"AFETR","MEAN_MOTION_DDOT":"0.0000000000000","REF_FRAME":"TEME","SEMIMAJOR_AXIS":"6925.364","INCLINATION":"53.0549","OBJECT_TYPE":"PAYLOAD","EPHEMERIS_TYPE":"0","OBJECT_NAME":"STARLINK-1692","COUNTRY_CODE":"US","TLE_LINE2":"2 46542  53.0549 327.7673 0001761  54.6509 305.4644 15.06394946 64775","GP_ID":"191010449","MEAN_ELEMENT_THEORY":"SGP4","TIME_SYSTEM":"UTC","PERIOD":"95.592"},{"OBJECT_TYPE":"PAYLOAD","INCLINATION":"53.0541","SEMIMAJOR_AXIS":"6925.384","REF_FRAME":"TEME","MEAN_MOTION_DDOT":"0.0000000000000","PERIOD":"95.593","TIME_SYSTEM":"UTC","MEAN_ELEMENT_THEORY":"SGP4","GP_ID":"191010699","TLE_LINE2":"2 46543  53.0541 327.2277 0001795  61.5017 298.6152 15.06388519 64799","COUNTRY_CODE":"US","OBJECT_NAME":"STARLINK-1693","EPHEMERIS_TYPE":"0","FILE":"3231740","BSTAR":"0.00004389500000","RCS_SIZE":"LARGE","PERIAPSIS":"546.006","LAUNCH_DATE":"2020-10-06","MEAN_MOTION_DOT":"0.00000372","CLASSIFICATION_TYPE":"U","APOAPSIS":"548.492","MEAN_MOTION":"15.06388519","ECCENTRICITY":"0.00017950","SITE":"AFETR","MEAN_ANOMALY":"298.6152","NORAD_CAT_ID":"46543","OBJECT_ID":"2020-070M","CENTER_NAME":"EARTH","ELEMENT_SET_NO":"999","TLE_LINE1":"1 46543U 20070M   21337.47392760  .00000372  00000-0  43895-4 0  9990","DECAY_DATE":null,"REV_AT_EPOCH":"6479","ARG_OF_PERICENTER":"61.5017","EPOCH":"2021-12-03T11:22:27.344640","RA_OF_ASC_NODE":"327.2277"},{"MEAN_ELEMENT_THEORY":"SGP4","PERIOD":"95.592","TIME_SYSTEM":"UTC","COUNTRY_CODE":"US","EPHEMERIS_TYPE":"0","OBJECT_NAME":"STARLINK-1694","GP_ID":"191011950","TLE_LINE2":"2 46544  53.0558 312.8459 0001649  61.5848 298.5307 15.06394673 64980","SEMIMAJOR_AXIS":"6925.365","INCLINATION":"53.0558","OBJECT_TYPE":"PAYLOAD","REF_FRAME":"TEME","MEAN_MOTION_DDOT":"0.0000000000000","CENTER_NAME":"EARTH","ELEMENT_SET_NO":"999","NORAD_CAT_ID":"46544","MEAN_ANOMALY":"298.5307","SITE":"AFETR","OBJECT_ID":"2020-070N","RA_OF_ASC_NODE":"312.8459","EPOCH":"2021-12-03T08:05:23.812224","ARG_OF_PERICENTER":"61.5848","TLE_LINE1":"1 46544U 20070N   21337.33708116  .00002113  00000-0  16075-3 0  9996","REV_AT_EPOCH":"6498","DECAY_DATE":null,"PERIAPSIS":"546.088","LAUNCH_DATE":"2020-10-06","MEAN_MOTION_DOT":"0.00002113","RCS_SIZE":"LARGE","APOAPSIS":"548.372","CLASSIFICATION_TYPE":"U","FILE":"3231740","BSTAR":"0.00016075000000","ECCENTRICITY":"0.00016490","MEAN_MOTION":"15.06394673"},{"CLASSIFICATION_TYPE":"U","APOAPSIS":"548.510","PERIAPSIS":"545.940","LAUNCH_DATE":"2020-10-06","MEAN_MOTION_DOT":"0.00000406","RCS_SIZE":"LARGE","BSTAR":"0.00004616800000","FILE":"3231740","ECCENTRICITY":"0.00018560","MEAN_MOTION":"15.06396300","ELEMENT_SET_NO":"999","CENTER_NAME":"EARTH","OBJECT_ID":"2020-070P","MEAN_ANOMALY":"298.6593","NORAD_CAT_ID":"46545","SITE":"AFETR","RA_OF_ASC_NODE":"327.3732","EPOCH":"2021-12-03T10:39:58.816800","ARG_OF_PERICENTER":"61.4582","REV_AT_EPOCH":"6478","DECAY_DATE":null,"TLE_LINE1":"1 46545U 20070P   21337.44443075  .00000406  00000-0  46168-4 0  9999","SEMIMAJOR_AXIS":"6925.360","INCLINATION":"53.0544","OBJECT_TYPE":"PAYLOAD","MEAN_MOTION_DDOT":"0.0000000000000","REF_FRAME":"TEME","MEAN_ELEMENT_THEORY":"SGP4","PERIOD":"95.592","TIME_SYSTEM":"UTC","EPHEMERIS_TYPE":"0","OBJECT_NAME":"STARLINK-1696","COUNTRY_CODE":"US","TLE_LINE2":"2 46545  53.0544 327.3732 0001856  61.4582 298.6593 15.06396300 64780","GP_ID":"191011701"},{"MEAN_MOTION":"15.06391011","ECCENTRICITY":"0.00018400","BSTAR":"0.00005680200000","FILE":"3231740","RCS_SIZE":"LARGE","LAUNCH_DATE":"2020-10-06","MEAN_MOTION_DOT":"0.00000564","PERIAPSIS":"545.967","CLASSIFICATION_TYPE":"U","APOAPSIS":"548.515","TLE_LINE1":"1 46546U 20070Q   21337.36334682  .00000564  00000-0  56802-4 0  9995","DECAY_DATE":null,"REV_AT_EPOCH":"6477","ARG_OF_PERICENTER":"56.0572","RA_OF_ASC_NODE":"327.7246","EPOCH":"2021-12-03T08:43:13.165248","SITE":"AFETR","NORAD_CAT_ID":"46546","MEAN_ANOMALY":"304.0591","OBJECT_ID":"2020-070Q","CENTER_NAME":"EARTH","ELEMENT_SET_NO":"999","REF_FRAME":"TEME","MEAN_MOTION_DDOT":"0.0000000000000","INCLINATION":"53.0553","OBJECT_TYPE":"PAYLOAD","SEMIMAJOR_AXIS":"6925.376","GP_ID":"191010949","TLE_LINE2":"2 46546  53.0553 327.7246 0001840  56.0572 304.0591 15.06391011 64770","COUNTRY_CODE":"US","OBJECT_NAME":"STARLINK-1697","EPHEMERIS_TYPE":"0","TIME_SYSTEM":"UTC","PERIOD":"95.593","MEAN_ELEMENT_THEORY":"SGP4"}];
